{
  "type": "FeatureCollection",
  "features": [
    {
      "type": "Feature",
      "properties": {
        "name": "250 MT. CENTRAL EXPRESS WAY",
        "width": 250,
        "type": "expressway",
        "color": "#E11D48",
        "lineWidth": 6
      },
      "geometry": {
        "type": "LineString",
        "coordinates": [
          [
            72.14,
            22.255
          ],
          [
            72.175,
            22.285
          ],
          [
            72.21,
            22.31
          ],
          [
            72.245,
            22.33
          ],
          [
            72.274,
            22.344
          ]
        ]
      }
    },
    {
      "type": "Feature",
      "properties": {
        "name": "55 MT. TP ARTERIAL ROAD",
        "width": 55,
        "type": "arterial",
        "color": "#F97316",
        "lineWidth": 4
      },
      "geometry": {
        "type": "LineString",
        "coordinates": [
          [
            72.165,
            22.26
          ],
          [
            72.18,
            22.29
          ],
          [
            72.23,
            22.31
          ],
          [
            72.27,
            22.32
          ]
        ]
      }
    },
    {
      "type": "Feature",
      "properties": {
        "name": "55 MT. NORTH CORRIDOR",
        "width": 55,
        "type": "arterial",
        "color": "#F97316",
        "lineWidth": 4
      },
      "geometry": {
        "type": "LineString",
        "coordinates": [
          [
            72.15,
            22.34
          ],
          [
            72.19,
            22.335
          ],
          [
            72.24,
            22.34
          ],
          [
            72.274,
            22.34
          ]
        ]
      }
    },
    {
      "type": "Feature",
      "properties": {
        "name": "30 MT. SECTOR LINK ROAD",
        "width": 30,
        "type": "collector",
        "color": "#FBBF24",
        "lineWidth": 2.5
      },
      "geometry": {
        "type": "LineString",
        "coordinates": [
          [
            72.185,
            22.33
          ],
          [
            72.205,
            22.3
          ],
          [
            72.225,
            22.27
          ],
          [
            72.245,
            22.25
          ]
        ]
      }
    },
    {
      "type": "Feature",
      "properties": {
        "name": "18 MT. RESIDENTIAL ACCESS CORRIDOR",
        "width": 18,
        "type": "internal",
        "color": "#94A3B8",
        "lineWidth": 1.8
      },
      "geometry": {
        "type": "LineString",
        "coordinates": [
          [
            72.215,
            22.32
          ],
          [
            72.235,
            22.3
          ],
          [
            72.255,
            22.28
          ]
        ]
      }
    }
  ]
}